{
"type": "FeatureCollection",
"name": "BABs_polygens",
"crs": { "type": "name", "properties": { "name": "urn:ogc:def:crs:OGC:1.3:CRS84" } },
"features": [
{ "type": "Feature", "properties": { "id": 4 }, "geometry": { "type": "MultiPolygon", "coordinates": [ [ [ [ 130.345343083459284, 41.149463162989917 ], [ 130.568650161328208, 39.273817170037141 ], [ 130.512823391860962, 38.535280647341807 ], [ 131.406051703336743, 38.360392372768587 ], [ 132.634240631615938, 39.014034737145813 ], [ 133.471642173624474, 39.961874240467871 ], [ 135.369752335510441, 40.600702661282767 ], [ 136.430460955387929, 40.515874476857036 ], [ 136.597941263789636, 40.175487643927255 ], [ 136.095500338584486, 39.360198152791241 ], [ 134.811484640838103, 38.796817633853763 ], [ 134.476524024034688, 37.700794429530561 ], [ 134.309043715632981, 36.901463572428113 ], [ 136.597941263789636, 37.700794429530561 ], [ 137.156208958462003, 38.447889488937037 ], [ 138.998492350880753, 39.61870071133896 ], [ 139.333452967684138, 41.275453789075634 ], [ 138.942665581413536, 41.776987816816799 ], [ 139.612586815020364, 42.891200062813233 ], [ 139.110145889815215, 44.106023487246446 ], [ 137.267862497396465, 43.945459677908552 ], [ 135.202272027108734, 42.891200062813233 ], [ 133.471642173624474, 42.150584877096897 ], [ 131.294398164402281, 41.693668854181581 ], [ 130.345343083459284, 41.149463162989917 ] ] ] ] } },
{ "type": "Feature", "properties": { "id": 1 }, "geometry": { "type": "MultiPolygon", "coordinates": [ [ [ [ 171.13145837292268, 59.791724481596646 ], [ 171.13145837292268, 58.738272532218112 ], [ 170.383150588823071, 57.751949930213954 ], [ 169.82191975074835, 56.73785186865625 ], [ 170.196073642798154, 55.32394320257098 ], [ 171.599150737984957, 54.352214524004928 ], [ 174.385679481205329, 54.510808179966283 ], [ 175.782274776156015, 55.400596075494569 ], [ 178.276194945710813, 55.457323660216559 ], [ -179.928182532209746, 54.943822091377939 ], [ -178.980492867778906, 54.014424163777086 ], [ -178.632149196079581, 53.21208481281078 ], [ -178.479008753666818, 52.439096311524871 ], [ -177.284627152481647, 52.549856192047528 ], [ -174.142287738842612, 52.852850568373945 ], [ -172.074022887479686, 53.941528544361745 ], [ -171.34551761234394, 54.390377969726885 ], [ -171.017690238532765, 55.002203190652203 ], [ -171.126966029803185, 55.501557156935576 ], [ -171.964747096209351, 55.830968266446902 ], [ -173.968136602832743, 56.562005490752426 ], [ -175.425147153104376, 57.298852943371777 ], [ -176.554330329564834, 57.963145080313851 ], [ -178.011340879836467, 58.539208280895501 ], [ -178.666995627458675, 59.087184019772295 ], [ -179.059419441631377, 59.68494655749641 ], [ 179.713120309544593, 59.945243514072864 ], [ 178.162644205766867, 60.363891521790393 ], [ 177.516612495859448, 61.216427557574796 ], [ 176.353755418026168, 61.43375725946072 ], [ 173.376381725221535, 60.352653747421385 ], [ 171.13145837292268, 59.791724481596646 ] ] ] ] } },
{ "type": "Feature", "properties": { "id": 2 }, "geometry": { "type": "MultiPolygon", "coordinates": [ [ [ [ 164.308705902391353, 56.800399310133791 ], [ 164.953314257461784, 56.335032521764653 ], [ 168.573038097472761, 55.217223618474812 ], [ 169.284275087682033, 55.277190097497822 ], [ 169.022554949709246, 56.226026189505966 ], [ 168.723446220597481, 57.151842597281828 ], [ 168.94777776743129, 57.955730388698427 ], [ 169.134720723126122, 58.644613257102314 ], [ 168.873000585153363, 59.320118776231567 ], [ 166.83755406459079, 59.169689225736384 ], [ 165.10207003170882, 58.188496316084468 ], [ 164.804558483214748, 57.687444135902766 ], [ 164.308705902391353, 56.800399310133791 ] ] ] ] } },
{ "type": "Feature", "properties": { "id": 3 }, "geometry": { "type": "MultiPolygon", "coordinates": [ [ [ [ 144.278306645965927, 47.222118319357733 ], [ 144.087710140014224, 45.951956779286448 ], [ 145.639604973797219, 45.179798765501666 ], [ 147.645511584446098, 46.040516174079237 ], [ 151.032277646312025, 47.634197976559449 ], [ 153.014200081509756, 49.168596589726022 ], [ 152.507196667854544, 49.138364414234886 ], [ 150.294818135540766, 48.284318099317723 ], [ 147.709043753096637, 47.653166527196227 ], [ 145.803078693579579, 47.351805882193474 ], [ 144.278306645965927, 47.222118319357733 ] ] ] ] } },
{ "type": "Feature", "properties": { "id": 9 }, "geometry": { "type": "MultiPolygon", "coordinates": [ [ [ [ 124.011472327882117, 21.74262674936924 ], [ 128.677154137690223, 21.173998511901139 ], [ 131.954240170769737, 23.434877059925391 ], [ 136.064483669886414, 21.948847312636193 ], [ 134.175993413535508, 15.053766452985581 ], [ 134.342624906742941, 11.050614187341832 ], [ 134.009361920328075, 9.136763526896139 ], [ 131.176626535801745, 8.203319239933601 ], [ 131.565433353285727, 4.948241777937321 ], [ 129.065960955174262, 4.173096290446252 ], [ 127.955084333791362, 5.998747720206813 ], [ 126.955295374546765, 10.88702696574747 ], [ 125.73333109102559, 13.762673282391189 ], [ 128.78824179982854, 15.696434062097241 ], [ 127.010839205615909, 17.982227547523653 ], [ 123.67820934146728, 17.982227547523653 ], [ 123.344946355052386, 20.290910488841686 ], [ 124.011472327882117, 21.74262674936924 ] ] ] ] } },
{ "type": "Feature", "properties": { "id": 5 }, "geometry": { "type": "MultiPolygon", "coordinates": [ [ [ [ 122.937527298713803, 24.817188851644246 ], [ 125.468588597763954, 25.431651860305749 ], [ 127.535621991988222, 27.331295421210417 ], [ 128.29494038170327, 28.194362700381205 ], [ 129.180811836370822, 29.420442465443511 ], [ 129.349549256307512, 30.339480006627195 ], [ 129.39173361129167, 31.430917670726693 ], [ 129.77139280614918, 32.00784780352803 ], [ 129.180811836370822, 32.294948904187265 ], [ 128.337124736687429, 31.82794683462452 ], [ 128.12620296176658, 30.923143373324415 ], [ 127.999649896814091, 30.668228263490793 ], [ 128.084018606782422, 30.119692501088128 ], [ 127.704359411924912, 29.494279500879912 ], [ 127.493437637004064, 28.753478108637733 ], [ 126.56538182735234, 27.782454355469135 ], [ 125.510772952748127, 26.726855553758128 ], [ 124.076504883286376, 25.699491615071238 ], [ 122.600052458840466, 24.894167209827859 ], [ 122.937527298713803, 24.817188851644246 ] ] ] ] } },
{ "type": "Feature", "properties": { "id": 6 }, "geometry": { "type": "MultiPolygon", "coordinates": [ [ [ [ 142.848680909415833, 22.788665134513657 ], [ 143.884010529858728, 21.718824526722663 ], [ 144.919340150301622, 20.165830096058322 ], [ 145.437004960523069, 18.578324678045885 ], [ 145.540537922567353, 17.335929133514412 ], [ 145.506026935219268, 16.024511614286745 ], [ 145.229939036434502, 15.023692981191944 ], [ 144.712274226213054, 13.712275461964278 ], [ 144.160098428643494, 13.194610651742831 ], [ 143.573411643725876, 12.745967816217576 ], [ 143.193790782896798, 12.090259056603742 ], [ 142.710636960023464, 11.814171157818969 ], [ 142.710636960023464, 12.642434854173285 ], [ 143.36634571963728, 14.816627057103364 ], [ 143.814988555162529, 16.576687411856287 ], [ 143.67694460577016, 18.61283566539398 ], [ 143.36634571963728, 19.889742197273552 ], [ 142.917702884112032, 21.408225640589798 ], [ 142.3655270865425, 22.512577235728884 ], [ 142.261994124498187, 22.892198096557948 ], [ 142.43454906123867, 22.926709083906044 ], [ 142.848680909415833, 22.788665134513657 ] ] ] ] } },
{ "type": "Feature", "properties": { "id": 7 }, "geometry": { "type": "MultiPolygon", "coordinates": [ [ [ [ 133.402810315328281, 31.017870811198282 ], [ 134.655755085675764, 32.146879700797228 ], [ 138.773515732123087, 33.427992798241299 ], [ 139.920444520155002, 26.72025216265822 ], [ 140.662574912410975, 23.915290318935746 ], [ 140.797507711002993, 23.915290318935746 ], [ 137.424187746203131, 23.668358910600698 ], [ 137.424187746203131, 23.915290318935746 ], [ 136.142326159579198, 27.381191087362406 ], [ 133.376203788443348, 30.276830849925833 ], [ 133.402810315328281, 31.017870811198282 ] ] ] ] } },
{ "type": "Feature", "properties": { "id": 8 }, "geometry": { "type": "MultiPolygon", "coordinates": [ [ [ [ 137.559120544795121, 22.986899080275233 ], [ 141.067373308186944, 23.173097811522304 ], [ 142.079369297626869, 19.910474765859711 ], [ 142.68656689129088, 17.546599836517839 ], [ 142.619100491994885, 14.499283879294865 ], [ 141.404705304666919, 12.135994858655865 ], [ 139.488507435233601, 12.482797213688407 ], [ 138.416254254219496, 11.696450046015798 ], [ 137.478032720832147, 9.324540718148556 ], [ 135.512235222306231, 8.92753639720555 ], [ 135.467558006430664, 11.696450046015798 ], [ 135.513033086439833, 14.97300613777802 ], [ 137.559120544795121, 22.986899080275233 ] ] ] ] } },
{ "type": "Feature", "properties": { "id": 10 }, "geometry": { "type": "MultiPolygon", "coordinates": [ [ [ [ 113.676503641212008, 17.303468249583439 ], [ 113.768178784642174, 16.689775039911606 ], [ 114.914118077518992, 17.259699955265589 ], [ 115.510006509814943, 17.128332822318971 ], [ 115.418331366384791, 16.162176212762656 ], [ 114.547417503798385, 15.323940634345707 ], [ 113.584828497781842, 15.014257650942676 ], [ 113.218127924061278, 13.682057699992129 ], [ 111.705488057463882, 12.476574432586458 ], [ 111.430462627173441, 11.6697550268382 ], [ 111.247112340313166, 10.319902734468105 ], [ 111.063762053452834, 9.642750103099058 ], [ 112.713914635195479, 10.680462024651694 ], [ 113.997366643217532, 10.72550216492834 ], [ 114.776605362373772, 11.6697550268382 ], [ 115.46416893809986, 11.579960341244968 ], [ 115.647519224960135, 10.770535599847912 ], [ 116.151732513825962, 11.80439250863248 ], [ 116.930971232982188, 12.073468498371835 ], [ 117.756047523853482, 12.073468498371835 ], [ 118.626961386439902, 12.834365417334142 ], [ 120.368789111612671, 12.968406699285557 ], [ 119.45203767731121, 13.904636075756931 ], [ 119.589550392456445, 18.263695580346145 ], [ 120.093763681322244, 19.391682077738103 ], [ 120.277113968182533, 20.554831426876909 ], [ 119.039499531875535, 19.780349542760359 ], [ 117.939397810713771, 19.909695934425191 ], [ 116.655945802691761, 18.785245029294135 ], [ 115.46416893809986, 18.828635341744018 ], [ 114.639092647228537, 18.481201044322301 ], [ 114.134879358362753, 18.045917283888755 ], [ 113.676503641212008, 17.303468249583439 ] ] ] ] } },
{ "type": "Feature", "properties": { "id": 11 }, "geometry": { "type": "MultiPolygon", "coordinates": [ [ [ [ 119.399068977455784, 4.179910263029271 ], [ 118.806052285181437, 2.737103057391379 ], [ 119.26934657602078, 1.718639490951186 ], [ 119.417600749089374, 1.255502497219902 ], [ 120.103276299531601, 2.10758902533388 ], [ 121.956453462889044, 2.181664184344522 ], [ 124.198797830551584, 1.644544333178271 ], [ 125.180981727131012, 2.866670351615778 ], [ 125.180981727131012, 4.549470146559718 ], [ 124.699155664658093, 5.693833285625537 ], [ 123.846694169513626, 6.136226685740412 ], [ 123.364868107040721, 6.74391318678262 ], [ 122.530938383529858, 6.302031011204654 ], [ 121.826731061454041, 5.564736512110017 ], [ 119.399068977455784, 4.179910263029271 ] ] ] ] } },
{ "type": "Feature", "properties": { "id": 12 }, "geometry": { "type": "MultiPolygon", "coordinates": [ [ [ [ 125.777249220065883, -5.394912019371917 ], [ 125.585875997082979, -6.34674821455948 ], [ 125.466267732718663, -7.605184121936253 ], [ 129.269810539503595, -6.34674821455948 ], [ 129.98746012568941, -5.537789170236655 ], [ 129.676478638342189, -4.68003907888659 ], [ 128.073727895860515, -4.46542962869218 ], [ 125.968622443048773, -5.156709080351381 ], [ 125.705484261447296, -5.323460768157785 ], [ 125.777249220065883, -5.394912019371917 ] ] ] ] } },
{ "type": "Feature", "properties": { "id": 13 }, "geometry": { "type": "MultiPolygon", "coordinates": [ [ [ [ 93.454899602103936, 13.542629197715325 ], [ 93.19160589477093, 11.043781955585063 ], [ 93.567739762389536, 9.340937057126084 ], [ 93.981487016769975, 7.778822602106282 ], [ 94.470461044674195, 6.472551084687099 ], [ 94.846594912292801, 6.173474816413301 ], [ 95.786929581339294, 8.746607096559318 ], [ 96.313516996005333, 12.993490963930933 ], [ 94.545687818197919, 13.68885440802041 ], [ 93.454899602103936, 13.542629197715325 ] ] ] ] } },
{ "type": "Feature", "properties": { "id": 15 }, "geometry": { "type": "MultiPolygon", "coordinates": [ [ [ [ 150.977323997110318, -9.53906371157618 ], [ 152.165785537712878, -10.397436755737214 ], [ 153.565529129978188, -10.91652945716258 ], [ 154.595529131833757, -10.994316266212845 ], [ 156.021682980556875, -10.527292576374835 ], [ 156.919631700123318, -10.059560400750318 ], [ 158.134503497183744, -9.851459893758831 ], [ 159.322965037786304, -9.721330213445608 ], [ 157.579888111569176, -8.991686476415154 ], [ 156.417836827424424, -8.417355635087256 ], [ 155.097324004532652, -8.626304900925913 ], [ 154.357836823713257, -9.356699723124153 ], [ 153.53911887352038, -9.799414141599192 ], [ 152.297836820002033, -9.773388200326314 ], [ 151.637580408556204, -9.643228050503206 ], [ 150.977323997110318, -9.53906371157618 ] ] ] ] } },
{ "type": "Feature", "properties": { "id": 14 }, "geometry": { "type": "MultiPolygon", "coordinates": [ [ [ [ 148.721774219331365, -4.007494021454857 ], [ 148.617624563464062, -3.259129075464152 ], [ 149.409161948055555, -3.051145625709362 ], [ 149.992400020912442, -3.030345021859722 ], [ 150.992236717238541, -3.00954401823819 ], [ 151.554644858921961, -3.654176957112905 ], [ 151.367175478360849, -4.236030481017143 ], [ 151.158876166626214, -4.879712855023992 ], [ 150.554808162595862, -5.253186039429397 ], [ 149.534141535096325, -4.464499442993422 ], [ 148.721774219331365, -4.007494021454857 ] ] ] ] } },
{ "type": "Feature", "properties": { "id": 16 }, "geometry": { "type": "MultiPolygon", "coordinates": [ [ [ [ 168.130708949776022, -14.068322939851468 ], [ 168.266686906457295, -13.625440537007012 ], [ 168.312012892017719, -13.137298472326789 ], [ 169.010195917500738, -12.156010740103843 ], [ 171.044979832150887, -12.067019205323158 ], [ 175.069330241125641, -12.378357244163002 ], [ 177.782375460659154, -12.822472173743163 ], [ 177.9664478163902, -13.935548116181241 ], [ 178.147751758631955, -14.554491255853463 ], [ 177.875795845269352, -16.094034270306345 ], [ 176.606668249577183, -16.444283140180143 ], [ 176.334712336214579, -17.186426873233071 ], [ 176.334712336214579, -17.838774091326258 ], [ 176.47069029289591, -18.315634465852952 ], [ 175.609496567247646, -19.523409996794097 ], [ 175.654822552808071, -20.679469881133492 ], [ 174.546041647534139, -21.633769803396088 ], [ 173.547248653758118, -21.900332345977695 ], [ 172.500894088849918, -21.944710630592041 ], [ 171.692347379602666, -21.811533853341821 ], [ 170.714290126720755, -20.892596930518373 ], [ 170.034400343314246, -19.351414797116803 ], [ 169.127880632105558, -17.795358423072724 ], [ 168.901250704303379, -17.012070294262752 ], [ 168.629294790940804, -15.743158898169902 ], [ 168.130708949776022, -14.068322939851468 ] ] ] ] } },
{ "type": "Feature", "properties": { "id": 17 }, "geometry": { "type": "MultiPolygon", "coordinates": [ [ [ [ -178.768823877881829, -15.597042684367729 ], [ -174.714250310784081, -15.712588684147166 ], [ -174.535372065176801, -16.72073914163818 ], [ -174.624811187980384, -18.009009165205292 ], [ -175.221072006671278, -19.287818797870688 ], [ -175.727893702558475, -21.25694501075467 ], [ -176.055837152838478, -22.34275520860243 ], [ -176.353967562183868, -23.832106671781478 ], [ -176.383780603118453, -23.996549568508925 ], [ -177.725367445172822, -23.996549568508925 ], [ -177.755180486107321, -20.472337921261364 ], [ -178.20237610012552, -17.122512814713122 ], [ -178.768823877881829, -15.597042684367729 ] ] ] ] } },
{ "type": "Feature", "properties": { "id": 18 }, "geometry": { "type": "MultiPolygon", "coordinates": [ [ [ [ -177.796713091965074, -24.688669346887909 ], [ -176.591467367043009, -24.658077557245388 ], [ -179.67153977517728, -32.423720060799084 ], [ -179.939372158493256, -32.366910877970639 ], [ -177.796713091965074, -24.688669346887909 ] ] ] ] } },
{ "type": "Feature", "properties": { "id": 19 }, "geometry": { "type": "MultiPolygon", "coordinates": [ [ [ [ -34.75064475907773, -55.803821115872729 ], [ -32.553058266197404, -55.414770386431599 ], [ -30.027473789305084, -55.526321717178739 ], [ -28.551482861251138, -56.061048504414053 ], [ -27.731487901221161, -56.894255777244069 ], [ -27.272290723604375, -57.709285895386252 ], [ -27.305090522005575, -58.660248253824385 ], [ -28.125085482035548, -59.285764363590538 ], [ -29.174679030873918, -60.064080882048998 ], [ -31.273866128550644, -59.982138727274553 ], [ -32.81545665340699, -59.883539707172226 ], [ -33.045055242215383, -59.635757336936202 ], [ -33.766650807041763, -58.89826587542354 ], [ -34.713124017383798, -57.74681663438173 ], [ -35.463171977506349, -56.401617147790859 ], [ -35.537839920706503, -55.785382338957284 ], [ -34.75064475907773, -55.803821115872729 ] ] ] ] } },
{ "type": "Feature", "properties": { "id": 21 }, "geometry": { "type": "MultiPolygon", "coordinates": [ [ [ [ -64.976587073389894, 17.557634223288876 ], [ -63.377812958964235, 17.411514580838595 ], [ -62.654558002438165, 16.75252373328604 ], [ -61.945145970208898, 15.037430700848066 ], [ -61.830377081690187, 13.582624685972695 ], [ -62.232068191505505, 12.118725106295631 ], [ -63.910737663772686, 11.441709333277482 ], [ -64.405596318237855, 11.966923429072352 ], [ -64.862388922359543, 12.304019038522688 ], [ -65.204983375450794, 14.502524480770621 ], [ -65.243049425794169, 16.238368857281802 ], [ -65.090785224420344, 16.935812650320401 ], [ -64.976587073389894, 17.557634223288876 ] ] ] ] } },
{ "type": "Feature", "properties": { "id": 23 }, "geometry": { "type": "MultiPolygon", "coordinates": [ [ [ [ 10.689973944505855, 40.905781250294936 ], [ 10.50376823992814, 40.195615589633356 ], [ 10.578250521759212, 39.765878021819603 ], [ 11.211349917323526, 39.420128808815463 ], [ 12.663754413029793, 39.101665635459185 ], [ 14.525811458807061, 38.781745601330144 ], [ 15.047187431624732, 38.840021096719028 ], [ 15.270634277117994, 39.304492779512834 ], [ 13.408577231340701, 39.966761203600221 ], [ 12.589272131198722, 40.679354196711671 ], [ 11.360314480985718, 41.046902861188229 ], [ 11.025144212745762, 40.962266399371693 ], [ 10.689973944505855, 40.905781250294936 ] ] ] ] } },
{ "type": "Feature", "properties": { "id": 24 }, "geometry": { "type": "MultiPolygon", "coordinates": [ [ [ [ 23.235801058739671, 36.969012194782295 ], [ 23.483815899558252, 37.236166887259884 ], [ 23.689069560925329, 37.345493719067086 ], [ 23.860114278731253, 37.331836627868064 ], [ 23.942262029521196, 37.191186617658083 ], [ 24.050969114401365, 36.696743237032841 ], [ 24.540150996362222, 36.477579164178124 ], [ 25.355454132963587, 36.228435328101043 ], [ 26.587467761605684, 36.243113103783621 ], [ 27.239710270886807, 36.331121365996083 ], [ 27.475242288127198, 36.228435328101043 ], [ 27.384653050727049, 36.037371475507051 ], [ 26.732410541445955, 35.624258504235272 ], [ 26.279464354445171, 35.520641643764911 ], [ 25.717811082564221, 35.431719634623988 ], [ 25.065568573283123, 35.431719634623988 ], [ 24.340854674081854, 35.594667484984001 ], [ 23.616140774880634, 35.816330765502009 ], [ 23.235665977799975, 36.521462183186877 ], [ 23.235801058739671, 36.969012194782295 ] ] ] ] } }
]
}
