{
"type": "FeatureCollection",
"name": "subduction_zones_Aleutian",
"features": [
{ "type": "Feature", "properties": { "Lon": 193.92774213496324, "Lat": 52.304815109861742, "Convergence Velocity": 6.2174132786835825, "Convergence Angle": -20.88381054383531, "Trench Velocity": 2.1842410072034557, "Trench Angle": -142.91910723032615, "Arc Length": 1.1459155902616465, "Trench Normal Angle": 340.06287431089441, "Subduction ID": 901.0, "Trench ID": 111.0 }, "geometry": { "type": "Point", "coordinates": [ -166.072257865036761, 52.304815109861742 ] } },
{ "type": "Feature", "properties": { "Lon": 192.18171837905743, "Lat": 51.901105522943986, "Convergence Velocity": 6.3106921124454471, "Convergence Angle": -20.558425675000041, "Trench Velocity": 2.1858884326158559, "Trench Angle": -142.94290544607938, "Arc Length": 1.1459155902616465, "Trench Normal Angle": 338.68501055914538, "Subduction ID": 901.0, "Trench ID": 111.0 }, "geometry": { "type": "Point", "coordinates": [ -167.818281620942571, 51.901105522943986 ] } },
{ "type": "Feature", "properties": { "Lon": 190.43323489862246, "Lat": 51.531681924615377, "Convergence Velocity": 6.3996282366523118, "Convergence Angle": -25.929873254516874, "Trench Velocity": 2.1865474348057341, "Trench Angle": -148.67550873592702, "Arc Length": 1.1459155902616465, "Trench Normal Angle": 343.0335004349925, "Subduction ID": 901.0, "Trench ID": 111.0 }, "geometry": { "type": "Point", "coordinates": [ -169.566765101377541, 51.531681924615377 ] } },
{ "type": "Feature", "properties": { "Lon": 188.68450330354165, "Lat": 51.184213630483868, "Convergence Velocity": 6.484929496758375, "Convergence Angle": -25.564944293438128, "Trench Velocity": 2.186411200260955, "Trench Angle": -148.67630111006517, "Arc Length": 1.1459155902616465, "Trench Normal Angle": 341.66758437373113, "Subduction ID": 901.0, "Trench ID": 111.0 }, "geometry": { "type": "Point", "coordinates": [ -171.315496696458354, 51.184213630483868 ] } },
{ "type": "Feature", "properties": { "Lon": 186.96083501643724, "Lat": 50.817153763868298, "Convergence Velocity": 6.5685549142836912, "Convergence Angle": -40.370264787449663, "Trench Velocity": 2.1864563495580196, "Trench Angle": -163.82872923221117, "Arc Length": 1.1459155902616465, "Trench Normal Angle": 355.48972187033706, "Subduction ID": 901.0, "Trench ID": 111.0 }, "geometry": { "type": "Point", "coordinates": [ -173.039164983562756, 50.817153763868298 ] } },
{ "type": "Feature", "properties": { "Lon": 185.15655096751195, "Lat": 50.713104759606061, "Convergence Velocity": 6.6370447823823975, "Convergence Angle": -39.872597017903146, "Trench Velocity": 2.1840274726606284, "Trench Angle": -163.81789040019049, "Arc Length": 1.1459155902616465, "Trench Normal Angle": 354.0921494042903, "Subduction ID": 901.0, "Trench ID": 111.0 }, "geometry": { "type": "Point", "coordinates": [ -174.843449032488053, 50.713104759606061 ] } },
{ "type": "Feature", "properties": { "Lon": 183.36131949701041, "Lat": 50.581343523500067, "Convergence Velocity": 6.7049443388436378, "Convergence Angle": -39.390021274440905, "Trench Velocity": 2.181666604099437, "Trench Angle": -163.80088517224689, "Arc Length": 1.1459155902616465, "Trench Normal Angle": 352.70392847976342, "Subduction ID": 901.0, "Trench ID": 111.0 }, "geometry": { "type": "Point", "coordinates": [ -176.638680502989587, 50.581343523500067 ] } },
{ "type": "Feature", "properties": { "Lon": 181.57714307790491, "Lat": 50.422153802926864, "Convergence Velocity": 6.7721963317011298, "Convergence Angle": -38.922112893597799, "Trench Velocity": 2.1793739648903254, "Trench Angle": -163.77769400759774, "Arc Length": 1.1459155902616465, "Trench Normal Angle": 351.32713312083217, "Subduction ID": 901.0, "Trench ID": 111.0 }, "geometry": { "type": "Point", "coordinates": [ -178.422856922095093, 50.422153802926864 ] } },
{ "type": "Feature", "properties": { "Lon": 179.79589050981281, "Lat": 50.465576907676045, "Convergence Velocity": 6.8257470628599659, "Convergence Angle": -55.267273749278857, "Trench Velocity": 2.1756115203843907, "Trench Angle": 179.34376138638396, "Arc Length": 1.1459155902616465, "Trench Normal Angle": 6.8408013758075157, "Subduction ID": 901.0, "Trench ID": 111.0 }, "geometry": { "type": "Point", "coordinates": [ 179.795890509812807, 50.465576907676045 ] } },
{ "type": "Feature", "properties": { "Lon": 178.01196326275829, "Lat": 50.622447759206949, "Convergence Velocity": 6.8711016383826786, "Convergence Angle": -61.339034767497957, "Trench Velocity": 2.1708060528873809, "Trench Angle": 172.68895869796751, "Arc Length": 1.1459155902616465, "Trench Normal Angle": 12.112824715287314, "Subduction ID": 901.0, "Trench ID": 111.0 }, "geometry": { "type": "Point", "coordinates": [ 178.011963262758286, 50.622447759206949 ] } },
{ "type": "Feature", "properties": { "Lon": 176.23721047878709, "Lat": 50.849475016138292, "Convergence Velocity": 6.9103925109533968, "Convergence Angle": -60.748437735636195, "Trench Velocity": 2.1650413106482969, "Trench Angle": 172.66963208560503, "Arc Length": 1.1459155902616465, "Trench Normal Angle": 10.738697683180558, "Subduction ID": 901.0, "Trench ID": 111.0 }, "geometry": { "type": "Point", "coordinates": [ 176.237210478787091, 50.849475016138292 ] } },
{ "type": "Feature", "properties": { "Lon": 174.54353072278633, "Lat": 51.23701483930742, "Convergence Velocity": 6.9368976784469201, "Convergence Angle": -77.427479247986156, "Trench Velocity": 2.1586191180994549, "Trench Angle": 155.3233558699672, "Arc Length": 1.1459155902616465, "Trench Normal Angle": 26.716718417399473, "Subduction ID": 901.0, "Trench ID": 111.0 }, "geometry": { "type": "Point", "coordinates": [ 174.543530722786329, 51.23701483930742 ] } }
]
}
