{
"type": "FeatureCollection",
"name": "subduction_zones_Kurile",
"features": [
{ "type": "Feature", "properties": { "Lon": 154.82853276647401, "Lat": 47.174091519895931, "Convergence Velocity": 8.213142837926684, "Convergence Angle": -10.469529894500193, "Trench Velocity": 2.0824957353622415, "Trench Angle": -163.58358757612095, "Arc Length": 1.1459155902616465, "Trench Normal Angle": 303.19686464943442, "Subduction ID": 901.0, "Trench ID": 406.0 }, "geometry": { "type": "Point", "coordinates": [ 154.828532766474012, 47.174091519895931 ] } },
{ "type": "Feature", "properties": { "Lon": 153.74050790218934, "Lat": 46.313621090805022, "Convergence Velocity": 8.3071347372771545, "Convergence Angle": -23.58567222504362, "Trench Velocity": 2.1131673787652101, "Trench Angle": -177.03949410673238, "Arc Length": 1.1459155902616465, "Trench Normal Angle": 315.73811234711962, "Subduction ID": 901.0, "Trench ID": 406.0 }, "geometry": { "type": "Point", "coordinates": [ 153.740507902189336, 46.313621090805022 ] } },
{ "type": "Feature", "properties": { "Lon": 152.56949778043131, "Lat": 45.507804407331825, "Convergence Velocity": 8.3962093767686774, "Convergence Angle": -23.320460750581049, "Trench Velocity": 2.1439490531788752, "Trench Angle": -177.08168365527737, "Arc Length": 1.1459155902616465, "Trench Normal Angle": 314.89699186089013, "Subduction ID": 901.0, "Trench ID": 406.0 }, "geometry": { "type": "Point", "coordinates": [ 152.569497780431306, 45.507804407331825 ] } },
{ "type": "Feature", "properties": { "Lon": 151.17862344827259, "Lat": 44.913888583350314, "Convergence Velocity": 8.4706883794630183, "Convergence Angle": -37.360828258987446, "Trench Velocity": 2.173006269435211, "Trench Angle": 168.6451570724951, "Arc Length": 1.1459155902616465, "Trench Normal Angle": 328.33865039064295, "Subduction ID": 901.0, "Trench ID": 406.0 }, "geometry": { "type": "Point", "coordinates": [ 151.178623448272589, 44.913888583350314 ] } },
{ "type": "Feature", "properties": { "Lon": 149.89539434479576, "Lat": 44.224381220135889, "Convergence Velocity": 8.5477056248963468, "Convergence Angle": -31.083799158459634, "Trench Velocity": 2.2016377076238927, "Trench Angle": 174.67872514993712, "Arc Length": 1.1459155902616465, "Trench Normal Angle": 321.48872330208678, "Subduction ID": 901.0, "Trench ID": 406.0 }, "geometry": { "type": "Point", "coordinates": [ 149.895394344795761, 44.224381220135889 ] } }
]
}
