{
"type": "FeatureCollection",
"name": "subduction_zones_Bismarck_Sea",
"features": [
{ "type": "Feature", "properties": { "Lon": 151.51963486991997, "Lat": -6.2076333391142775, "Convergence Velocity": 11.978870405838205, "Convergence Angle": 77.761846125545929, "Trench Velocity": -5.8553497528982055, "Trench Angle": -88.293044253081291, "Arc Length": 1.1459155902616465, "Trench Normal Angle": 326.81677421724345, "Subduction ID": 849.0, "Trench ID": 830.0 }, "geometry": { "type": "Point", "coordinates": [ 151.519634869919969, -6.207633339114278 ] } },
{ "type": "Feature", "properties": { "Lon": 150.50628653333354, "Lat": -6.7460063111378954, "Convergence Velocity": 12.66105710101032, "Convergence Angle": 59.885499333049076, "Trench Velocity": 6.2303313823451516, "Trench Angle": -114.99543658073797, "Arc Length": 1.1459155902616465, "Trench Normal Angle": 336.68072172474882, "Subduction ID": 849.0, "Trench ID": 830.0 }, "geometry": { "type": "Point", "coordinates": [ 150.506286533333537, -6.746006311137895 ] } },
{ "type": "Feature", "properties": { "Lon": 149.39107915586834, "Lat": -7.0295226497339698, "Convergence Velocity": 13.916364462257857, "Convergence Angle": 43.038409627193602, "Trench Velocity": 7.4012359739034395, "Trench Angle": -137.62007704098963, "Arc Length": 0.69897742165958721, "Trench Normal Angle": 347.65781143846436, "Subduction ID": 849.0, "Trench ID": 830.0 }, "geometry": { "type": "Point", "coordinates": [ 149.39107915586834, -7.02952264973397 ] } },
{ "type": "Feature", "properties": { "Lon": 148.15123060571676, "Lat": -7.1637811668559808, "Convergence Velocity": 4.4663588552822926, "Convergence Angle": 48.5949106176284, "Trench Velocity": 6.0930120119436308, "Trench Angle": -91.780463281347835, "Arc Length": 0.93728474007515949, "Trench Normal Angle": 17.976850075219012, "Subduction ID": 615.0, "Trench ID": 69702.0 }, "geometry": { "type": "Point", "coordinates": [ 148.151230605716762, -7.163781166855981 ] } },
{ "type": "Feature", "properties": { "Lon": 152.52742099943873, "Lat": -5.671089774210329, "Convergence Velocity": 11.561358493691353, "Convergence Angle": 75.450210459237553, "Trench Velocity": -6.0267171712025682, "Trench Angle": -82.007955585621019, "Arc Length": 1.1459155902616465, "Trench Normal Angle": 337.89450322776162, "Subduction ID": 849.0, "Trench ID": 830.0 }, "geometry": { "type": "Point", "coordinates": [ 152.527420999438732, -5.671089774210329 ] } }
]
}
