{
"type": "FeatureCollection",
"name": "subduction_zones_Lau_Basin",
"features": [
{ "type": "Feature", "properties": { "Lon": 186.52380297207833, "Lat": -20.76857015034112, "Convergence Velocity": 12.447203298880188, "Convergence Angle": -16.45471573149144, "Trench Velocity": 6.6404354035136191, "Trench Angle": 145.30941889079423, "Arc Length": 1.1459155902616465, "Trench Normal Angle": 290.49237132575735, "Subduction ID": 901.0, "Trench ID": 821.0 }, "geometry": { "type": "Point", "coordinates": [ -173.476197027921671, -20.76857015034112 ] } },
{ "type": "Feature", "properties": { "Lon": 186.09163871740091, "Lat": -21.841425528651961, "Convergence Velocity": 11.882559182636987, "Convergence Angle": -17.260790182188689, "Trench Velocity": 6.2190033121321253, "Trench Angle": 142.57516734037571, "Arc Length": 1.1459155902616465, "Trench Normal Angle": 290.64939817274455, "Subduction ID": 901.0, "Trench ID": 821.0 }, "geometry": { "type": "Point", "coordinates": [ -173.908361282599088, -21.841425528651961 ] } },
{ "type": "Feature", "properties": { "Lon": 185.52881540343066, "Lat": -22.860682112944815, "Convergence Velocity": 11.340400423168273, "Convergence Angle": -26.062565507384615, "Trench Velocity": 5.8521562438031713, "Trench Angle": 131.43416439117877, "Arc Length": 1.6033601744999011, "Trench Normal Angle": 298.4669938401899, "Subduction ID": 901.0, "Trench ID": 821.0 }, "geometry": { "type": "Point", "coordinates": [ -174.471184596569344, -22.860682112944815 ] } },
{ "type": "Feature", "properties": { "Lon": 184.95168575245296, "Lat": -23.873377270374139, "Convergence Velocity": 10.803252647900152, "Convergence Angle": -7.5426809444914955, "Trench Velocity": 5.5134293482600603, "Trench Angle": 147.27898794341132, "Arc Length": 0.68847100602339217, "Trench Normal Angle": 278.83161093096271, "Subduction ID": 901.0, "Trench ID": 821.0 }, "geometry": { "type": "Point", "coordinates": [ -175.04831424754704, -23.873377270374139 ] } },
{ "type": "Feature", "properties": { "Lon": 184.7575682445831, "Lat": -25.005584273290477, "Convergence Velocity": 10.205689485394132, "Convergence Angle": -7.9856676813304741, "Trench Velocity": 5.0781499063838051, "Trench Angle": 144.06747058302892, "Arc Length": 1.1459155902616465, "Trench Normal Angle": 278.91192751173571, "Subduction ID": 901.0, "Trench ID": 821.0 }, "geometry": { "type": "Point", "coordinates": [ -175.242431755416902, -25.005584273290477 ] } },
{ "type": "Feature", "properties": { "Lon": 184.62687973198234, "Lat": -26.143955083763796, "Convergence Velocity": 9.602306107721633, "Convergence Angle": -2.5116168410333821, "Trench Velocity": 4.6444398438371168, "Trench Angle": 146.31842904817447, "Arc Length": 1.1459155902616465, "Trench Normal Angle": 273.18142671809636, "Subduction ID": 901.0, "Trench ID": 821.0 }, "geometry": { "type": "Point", "coordinates": [ -175.373120268017658, -26.143955083763796 ] } }
]
}
