{
"type": "FeatureCollection",
"name": "subduction_zones_Mariana",
"features": [
{ "type": "Feature", "properties": { "Lon": 144.95343890466685, "Lat": 12.437670491424827, "Convergence Velocity": 8.5779100670877906, "Convergence Angle": -71.023631608544378, "Trench Velocity": -4.6713882506498718, "Trench Angle": 51.280009719659667, "Arc Length": 1.1459155902616465, "Trench Normal Angle": 317.44730820520482, "Subduction ID": 901.0, "Trench ID": 699.0 }, "geometry": { "type": "Point", "coordinates": [ 144.953438904666854, 12.437670491424827 ] } },
{ "type": "Feature", "properties": { "Lon": 145.82050779973264, "Lat": 13.211212704442504, "Convergence Velocity": 8.4533679199013214, "Convergence Angle": -73.642508147694926, "Trench Velocity": -4.9485530588363273, "Trench Angle": 47.426292573122929, "Arc Length": 1.1459155902616465, "Trench Normal Angle": 317.6397745640046, "Subduction ID": 901.0, "Trench ID": 699.0 }, "geometry": { "type": "Point", "coordinates": [ 145.820507799732638, 13.211212704442504 ] } },
{ "type": "Feature", "properties": { "Lon": 146.64629269842183, "Lat": 14.013299001009447, "Convergence Velocity": 8.329991423030668, "Convergence Angle": -50.089537479806367, "Trench Velocity": -5.2291315645126799, "Trench Angle": 70.083053107501584, "Arc Length": 1.1459155902616465, "Trench Normal Angle": 291.63522996450814, "Subduction ID": 901.0, "Trench ID": 699.0 }, "geometry": { "type": "Point", "coordinates": [ 146.646292698421831, 14.013299001009447 ] } },
{ "type": "Feature", "properties": { "Lon": 147.08382667384299, "Lat": 15.078084467398998, "Convergence Velocity": 8.0718492214597379, "Convergence Angle": -52.328895444529977, "Trench Velocity": -5.387915266746214, "Trench Angle": 65.840503328361507, "Arc Length": 1.1459155902616465, "Trench Normal Angle": 291.74512273940809, "Subduction ID": 901.0, "Trench ID": 699.0 }, "geometry": { "type": "Point", "coordinates": [ 147.083826673842992, 15.078084467398998 ] } },
{ "type": "Feature", "properties": { "Lon": 147.3, "Lat": 16.183904643482268, "Convergence Velocity": 7.7707966274578197, "Convergence Angle": -32.499608142897564, "Trench Velocity": -5.4966213941200017, "Trench Angle": 83.419781441353805, "Arc Length": 1.1459155902616465, "Trench Normal Angle": 269.99999999999909, "Subduction ID": 901.0, "Trench ID": 699.0 }, "geometry": { "type": "Point", "coordinates": [ 147.3, 16.183904643482268 ] } },
{ "type": "Feature", "properties": { "Lon": 147.3, "Lat": 17.329820233743906, "Convergence Velocity": 7.4232677653572621, "Convergence Angle": -34.228935167998493, "Trench Velocity": -5.5613620734040357, "Trench Angle": 79.087921023813038, "Arc Length": 1.1459155902616465, "Trench Normal Angle": 269.99999999999909, "Subduction ID": 901.0, "Trench ID": 699.0 }, "geometry": { "type": "Point", "coordinates": [ 147.3, 17.329820233743906 ] } },
{ "type": "Feature", "properties": { "Lon": 147.3, "Lat": 18.475735824005664, "Convergence Velocity": 7.0809951056476175, "Convergence Angle": -36.134864111636126, "Trench Velocity": -5.6565331627300042, "Trench Angle": 74.88289485903978, "Arc Length": 1.1459155902616465, "Trench Normal Angle": 269.99999999999989, "Subduction ID": 901.0, "Trench ID": 699.0 }, "geometry": { "type": "Point", "coordinates": [ 147.3, 18.475735824005664 ] } },
{ "type": "Feature", "properties": { "Lon": 147.3, "Lat": 19.621651414267291, "Convergence Velocity": 6.7455582656979187, "Convergence Angle": -38.244024019781968, "Trench Velocity": -5.7809064704903044, "Trench Angle": 70.843473057494421, "Arc Length": 1.1459155902616465, "Trench Normal Angle": 270.00000000000011, "Subduction ID": 901.0, "Trench ID": 699.0 }, "geometry": { "type": "Point", "coordinates": [ 147.3, 19.621651414267291 ] } },
{ "type": "Feature", "properties": { "Lon": 147.07869526531482, "Lat": 20.738997851404157, "Convergence Velocity": 6.3771021566254733, "Convergence Angle": -24.357308679986286, "Trench Velocity": -5.8585082831439452, "Trench Angle": 82.444403687309432, "Arc Length": 1.1459155902616465, "Trench Normal Angle": 254.27982683729422, "Subduction ID": 901.0, "Trench ID": 699.0 }, "geometry": { "type": "Point", "coordinates": [ 147.078695265314821, 20.738997851404157 ] } },
{ "type": "Feature", "properties": { "Lon": 146.43978710075086, "Lat": 21.702111521418942, "Convergence Velocity": 5.9614048903464285, "Convergence Angle": -4.1827416444334391, "Trench Velocity": 5.8126268729545476, "Trench Angle": 99.150047052342359, "Arc Length": 1.1459155902616465, "Trench Normal Angle": 233.28027996388136, "Subduction ID": 901.0, "Trench ID": 699.0 }, "geometry": { "type": "Point", "coordinates": [ 146.439787100750863, 21.702111521418942 ] } },
{ "type": "Feature", "properties": { "Lon": 145.58001030370724, "Lat": 22.51957335463398, "Convergence Velocity": 5.5358529783897241, "Convergence Angle": 6.9781476534682545, "Trench Velocity": 5.7071884959586532, "Trench Angle": 106.01835724574099, "Arc Length": 1.1459155902616465, "Trench Normal Angle": 222.04361646082103, "Subduction ID": 901.0, "Trench ID": 699.0 }, "geometry": { "type": "Point", "coordinates": [ 145.58001030370724, 22.51957335463398 ] } },
{ "type": "Feature", "properties": { "Lon": 144.68693974284912, "Lat": 23.31537680253998, "Convergence Velocity": 5.1079006275439403, "Convergence Angle": 1.5229039312818109, "Trench Velocity": 5.6214259439157237, "Trench Angle": 95.985685152051673, "Arc Length": 1.1459155902616465, "Trench Normal Angle": 227.55249070211454, "Subduction ID": 901.0, "Trench ID": 699.0 }, "geometry": { "type": "Point", "coordinates": [ 144.68693974284912, 23.31537680253998 ] } }
]
}
