{
"type": "FeatureCollection",
"name": "subduction_zones_Lesser_Antilles",
"features": [
{ "type": "Feature", "properties": { "Lon": 302.44955871455528, "Lat": 11.671929215099494, "Convergence Velocity": 1.5124598110306995, "Convergence Angle": -9.093542533756688, "Trench Velocity": 1.4711390093046519, "Trench Angle": 110.03299445234119, "Arc Length": 1.5780067491738672, "Trench Normal Angle": 280.5657409568193, "Subduction ID": 201.0, "Trench ID": 2011.0 }, "geometry": { "type": "Point", "coordinates": [ -57.550441285444712, 11.671929215099494 ] } },
{ "type": "Feature", "properties": { "Lon": 302.54685136638932, "Lat": 13.923488034137767, "Convergence Velocity": 1.453624095256876, "Convergence Angle": 12.497163176933144, "Trench Velocity": 1.444524780895621, "Trench Angle": 129.62668460950741, "Arc Length": 1.1459155902616465, "Trench Normal Angle": 258.96076103415481, "Subduction ID": 201.0, "Trench ID": 2011.0 }, "geometry": { "type": "Point", "coordinates": [ -57.453148633610681, 13.923488034137767 ] } },
{ "type": "Feature", "properties": { "Lon": 302.66501729296709, "Lat": 12.798333532740697, "Convergence Velocity": 1.4832407030831414, "Convergence Angle": -9.2759434482344751, "Trench Velocity": 1.4613749205697903, "Trench Angle": 108.94999345316155, "Arc Length": 1.1459155902616465, "Trench Normal Angle": 280.61140407251287, "Subduction ID": 201.0, "Trench ID": 2011.0 }, "geometry": { "type": "Point", "coordinates": [ -57.334982707032914, 12.798333532740697 ] } },
{ "type": "Feature", "properties": { "Lon": 298.76191828625667, "Lat": 19.583622324095995, "Convergence Velocity": 1.447006519165738, "Convergence Angle": 41.581113140118219, "Trench Velocity": 1.2881247980196893, "Trench Angle": 159.01396497580222, "Arc Length": 0.57295779513082323, "Trench Normal Angle": 224.4896823075444, "Subduction ID": 101.0, "Trench ID": 2011.0 }, "geometry": { "type": "Point", "coordinates": [ -61.238081713743355, 19.583622324095995 ] } },
{ "type": "Feature", "properties": { "Lon": 299.62532334329205, "Lat": 18.778549309294263, "Convergence Velocity": 1.4462361523047655, "Convergence Angle": 41.614950278008102, "Trench Velocity": 1.3179925134366921, "Trench Angle": 159.51710732686564, "Arc Length": 1.1459155902616465, "Trench Normal Angle": 224.77337003915855, "Subduction ID": 101.0, "Trench ID": 2011.0 }, "geometry": { "type": "Point", "coordinates": [ -60.374676656707969, 18.778549309294263 ] } },
{ "type": "Feature", "properties": { "Lon": 300.48049755444941, "Lat": 17.96954872335693, "Convergence Velocity": 1.4453895271297217, "Convergence Angle": 41.641741061621865, "Trench Velocity": 1.3480204861020975, "Trench Angle": 159.9905459046702, "Arc Length": 1.1459155902616465, "Trench Normal Angle": 225.04294862085393, "Subduction ID": 101.0, "Trench ID": 2011.0 }, "geometry": { "type": "Point", "coordinates": [ -59.519502445550565, 17.96954872335693 ] } },
{ "type": "Feature", "properties": { "Lon": 301.10638741903102, "Lat": 17.012318070822317, "Convergence Velocity": 1.4439889791703122, "Convergence Angle": 20.838542960776326, "Trench Velocity": 1.3741767578942803, "Trench Angle": 139.85994196791515, "Arc Length": 0.98310449848441328, "Trench Normal Angle": 246.06117193102986, "Subduction ID": 101.0, "Trench ID": 2011.0 }, "geometry": { "type": "Point", "coordinates": [ -58.893612580968991, 17.012318070822317 ] } }
]
}
