{
"type": "FeatureCollection",
"name": "subduction_zones_Okinawa_Trough",
"features": [
{ "type": "Feature", "properties": { "Lon": 129.79185758144857, "Lat": 26.649171243145553, "Convergence Velocity": 8.236857605078189, "Convergence Angle": 0.098711648919567768, "Trench Velocity": 4.1508043797826133, "Trench Angle": -175.59773167686615, "Arc Length": 1.1459155902616465, "Trench Normal Angle": 301.90365188016153, "Subduction ID": 608.0, "Trench ID": 601.0 }, "geometry": { "type": "Point", "coordinates": [ 129.791857581448568, 26.649171243145553 ] } },
{ "type": "Feature", "properties": { "Lon": 128.93402223364996, "Lat": 25.800847029525851, "Convergence Velocity": 8.2063525680201668, "Convergence Angle": -15.783204425499168, "Trench Velocity": 4.1419293873429739, "Trench Angle": 169.08973634161461, "Arc Length": 1.1459155902616465, "Trench Normal Angle": 317.93375180898187, "Subduction ID": 608.0, "Trench ID": 601.0 }, "geometry": { "type": "Point", "coordinates": [ 128.934022233649955, 25.800847029525851 ] } },
{ "type": "Feature", "properties": { "Lon": 127.99517567565645, "Lat": 25.030090246899931, "Convergence Velocity": 8.1202974926924227, "Convergence Angle": -14.833043401573192, "Trench Velocity": 4.085883812442499, "Trench Angle": 171.12084999319057, "Arc Length": 1.1459155902616465, "Trench Normal Angle": 317.53080211308821, "Subduction ID": 608.0, "Trench ID": 601.0 }, "geometry": { "type": "Point", "coordinates": [ 127.995175675656455, 25.030090246899931 ] } },
{ "type": "Feature", "properties": { "Lon": 127.02239475848108, "Lat": 24.301229388110919, "Convergence Velocity": 8.0770991400222432, "Convergence Angle": -26.258888233391392, "Trench Velocity": 4.0664017274105806, "Trench Angle": 160.14820335564389, "Arc Length": 1.1459155902616465, "Trench Normal Angle": 328.89412862119747, "Subduction ID": 608.0, "Trench ID": 601.0 }, "geometry": { "type": "Point", "coordinates": [ 127.022394758481084, 24.301229388110919 ] } },
{ "type": "Feature", "properties": { "Lon": 125.95084054028293, "Lat": 23.705478379515377, "Convergence Velocity": 7.8780365942795081, "Convergence Angle": -23.708430658837351, "Trench Velocity": 3.937018477233607, "Trench Angle": 165.66167665506782, "Arc Length": 1.1459155902616465, "Trench Normal Angle": 328.45821446019391, "Subduction ID": 608.0, "Trench ID": 601.0 }, "geometry": { "type": "Point", "coordinates": [ 125.950840540282925, 23.705478379515377 ] } }
]
}
