{
"type": "FeatureCollection",
"name": "subduction_zones_Havre_Basin",
"features": [
{ "type": "Feature", "properties": { "Lon": 181.65336407836992, "Lat": -34.256050094756951, "Convergence Velocity": 5.3814827715279092, "Convergence Angle": -29.565245287908429, "Trench Velocity": -3.5630962215828741, "Trench Angle": 78.293168468340113, "Arc Length": 1.1459155902616465, "Trench Normal Angle": 287.36091110890169, "Subduction ID": 901.0, "Trench ID": 806.0 }, "geometry": { "type": "Point", "coordinates": [ -178.346635921630082, -34.256050094756951 ] } },
{ "type": "Feature", "properties": { "Lon": 182.15476000249672, "Lat": -33.199550902958649, "Convergence Velocity": 5.561312102961347, "Convergence Angle": -28.379624326466697, "Trench Velocity": -3.5318960133391468, "Trench Angle": 80.114929866201393, "Arc Length": 1.7036420356739106, "Trench Normal Angle": 287.13177193807473, "Subduction ID": 901.0, "Trench ID": 806.0 }, "geometry": { "type": "Point", "coordinates": [ -177.845239997503285, -33.199550902958649 ] } },
{ "type": "Feature", "properties": { "Lon": 184.09990795049478, "Lat": -28.371261681338737, "Convergence Velocity": 8.4120736823504512, "Convergence Angle": -12.671526979890373, "Trench Velocity": 3.9294276374425756, "Trench Angle": 127.37300842226836, "Arc Length": 1.1459155902616465, "Trench Normal Angle": 281.99063395171095, "Subduction ID": 901.0, "Trench ID": 821.0 }, "geometry": { "type": "Point", "coordinates": [ -175.900092049505218, -28.371261681338737 ] } },
{ "type": "Feature", "properties": { "Lon": 183.82641974372746, "Lat": -29.491901950024033, "Convergence Velocity": 7.8111584197420454, "Convergence Angle": -13.665867843363971, "Trench Velocity": 3.6316515271088252, "Trench Angle": 120.69351413267597, "Arc Length": 1.1459155902616465, "Trench Normal Angle": 282.12294445823466, "Subduction ID": 901.0, "Trench ID": 821.0 }, "geometry": { "type": "Point", "coordinates": [ -176.173580256272544, -29.491901950024033 ] } },
{ "type": "Feature", "properties": { "Lon": 183.35177955740531, "Lat": -30.557362638785925, "Convergence Velocity": 7.2438337335198062, "Convergence Angle": -26.945102974110657, "Trench Velocity": 3.4690301994635435, "Trench Angle": 101.12787886230301, "Arc Length": 1.1459155902616465, "Trench Normal Angle": 293.7699502765953, "Subduction ID": 901.0, "Trench ID": 821.0 }, "geometry": { "type": "Point", "coordinates": [ -176.648220442594692, -30.557362638785925 ] } },
{ "type": "Feature", "properties": { "Lon": 182.80949361146446, "Lat": -31.604948845419852, "Convergence Velocity": 6.6948005460847728, "Convergence Angle": -29.363959028900769, "Trench Velocity": 3.4069559156208848, "Trench Angle": 92.306560397720673, "Arc Length": 1.1334154236358362, "Trench Normal Angle": 294.04991953890254, "Subduction ID": 901.0, "Trench ID": 821.0 }, "geometry": { "type": "Point", "coordinates": [ -177.190506388535539, -31.604948845419852 ] } }
]
}
