{
"type": "FeatureCollection",
"name": "subduction_zones_Sea_of_Japan",
"features": [
{ "type": "Feature", "properties": { "Lon": 144.20278261911818, "Lat": 39.993337649326364, "Convergence Velocity": 9.5086413359640769, "Convergence Angle": 24.939279588710797, "Trench Velocity": 4.0325398217014223, "Trench Angle": -115.85196294397569, "Arc Length": 1.1459155902616465, "Trench Normal Angle": 276.49490895871281, "Subduction ID": 901.0, "Trench ID": 601.0 }, "geometry": { "type": "Point", "coordinates": [ 144.202782619118182, 39.993337649326364 ] } },
{ "type": "Feature", "properties": { "Lon": 144.01424879966564, "Lat": 38.856949621991014, "Convergence Velocity": 9.5764548391888376, "Convergence Angle": 20.137872194974651, "Trench Velocity": 3.8171483864752052, "Trench Angle": -122.82529852641818, "Arc Length": 1.1459155902616465, "Trench Normal Angle": 278.79205665910143, "Subduction ID": 901.0, "Trench ID": 601.0 }, "geometry": { "type": "Point", "coordinates": [ 144.014248799665637, 38.856949621991014 ] } },
{ "type": "Feature", "properties": { "Lon": 143.72487423012959, "Lat": 37.740411262972344, "Convergence Velocity": 9.7316887180959544, "Convergence Angle": 7.0571622548847781, "Trench Velocity": 4.2316443677501026, "Trench Angle": -134.00629764395239, "Arc Length": 1.1459155902616465, "Trench Normal Angle": 294.74618892446227, "Subduction ID": 901.0, "Trench ID": 601.0 }, "geometry": { "type": "Point", "coordinates": [ 143.724874230129586, 37.740411262972344 ] } },
{ "type": "Feature", "properties": { "Lon": 143.10610394457214, "Lat": 36.706284958750224, "Convergence Velocity": 9.1292883737361272, "Convergence Angle": 2.2209677831648738, "Trench Velocity": 3.6076321133289868, "Trench Angle": -133.59646561306684, "Arc Length": 1.1459155902616465, "Trench Normal Angle": 297.89144749695203, "Subduction ID": 901.0, "Trench ID": 601.0 }, "geometry": { "type": "Point", "coordinates": [ 143.106103944572141, 36.706284958750224 ] } },
{ "type": "Feature", "properties": { "Lon": 142.42732203586394, "Lat": 35.699993534115585, "Convergence Velocity": 8.8471876256602098, "Convergence Angle": 1.6445117864524754, "Trench Velocity": 3.5904236066151722, "Trench Angle": -129.1539449557327, "Arc Length": 1.158973303245163, "Trench Normal Angle": 299.84228915626676, "Subduction ID": 901.0, "Trench ID": 601.0 }, "geometry": { "type": "Point", "coordinates": [ 142.427322035863938, 35.699993534115585 ] } }
]
}
