{
"type": "FeatureCollection",
"name": "subduction_zones_Andama",
"features": [
{ "type": "Feature", "properties": { "Lon": 91.709622735739657, "Lat": 12.807371515037605, "Convergence Velocity": 4.1742067780685286, "Convergence Angle": -49.4155389771621, "Trench Velocity": -2.1731028059960242, "Trench Angle": -7.2352223988055639, "Arc Length": 0.57295779513082323, "Trench Normal Angle": 88.691471359500113, "Subduction ID": 501.0, "Trench ID": 686.0 }, "geometry": { "type": "Point", "coordinates": [ 91.709622735739657, 12.807371515037605 ] } },
{ "type": "Feature", "properties": { "Lon": 91.736340805529409, "Lat": 11.661753442437975, "Convergence Velocity": 4.2190499224423474, "Convergence Angle": -48.710863485800388, "Trench Velocity": -2.1240852168273792, "Trench Angle": -7.4015708924619439, "Arc Length": 1.1459155902616465, "Trench Normal Angle": 88.697133585317061, "Subduction ID": 501.0, "Trench ID": 686.0 }, "geometry": { "type": "Point", "coordinates": [ 91.736340805529409, 11.661753442437975 ] } },
{ "type": "Feature", "properties": { "Lon": 91.762839231562893, "Lat": 10.516132923691815, "Convergence Velocity": 4.2631282818178349, "Convergence Angle": -48.039671106049298, "Trench Velocity": -2.0751008133130373, "Trench Angle": -7.5787731026757061, "Arc Length": 1.4656503606308822, "Trench Normal Angle": 88.702230351156786, "Subduction ID": 501.0, "Trench ID": 686.0 }, "geometry": { "type": "Point", "coordinates": [ 91.762839231562893, 10.516132923691815 ] } },
{ "type": "Feature", "properties": { "Lon": 91.862389184398509, "Lat": 9.3745077197242654, "Convergence Velocity": 4.6596102075399406, "Convergence Angle": -68.461792217036631, "Trench Velocity": -2.0244397513512702, "Trench Angle": -3.9194910175920552, "Arc Length": 0.82618081989241088, "Trench Normal Angle": 84.961209451632726, "Subduction ID": 511.0, "Trench ID": 686.0 }, "geometry": { "type": "Point", "coordinates": [ 91.862389184398509, 9.374507719724265 ] } },
{ "type": "Feature", "properties": { "Lon": 91.964076487174623, "Lat": 8.2330065996688102, "Convergence Velocity": 4.7052541409531932, "Convergence Angle": -67.095410318152275, "Trench Velocity": -1.9728077255807894, "Trench Angle": -4.0216164819906899, "Arc Length": 1.1459155902616465, "Trench Normal Angle": 84.976773534487521, "Subduction ID": 511.0, "Trench ID": 686.0 }, "geometry": { "type": "Point", "coordinates": [ 91.964076487174623, 8.23300659966881 ] } },
{ "type": "Feature", "properties": { "Lon": 92.068585409020613, "Lat": 7.0924808559567607, "Convergence Velocity": 4.7531495082368149, "Convergence Angle": -42.80832504222419, "Trench Velocity": -1.9211981106976765, "Trench Angle": 18.840528985540061, "Arc Length": 1.419457851686015, "Trench Normal Angle": 62.024056752834447, "Subduction ID": 511.0, "Trench ID": 686.0 }, "geometry": { "type": "Point", "coordinates": [ 92.068585409020613, 7.092480855956761 ] } },
{ "type": "Feature", "properties": { "Lon": 92.609148318074176, "Lat": 6.0801733753804532, "Convergence Velocity": 4.8408270690069495, "Convergence Angle": -41.853612812120282, "Trench Velocity": -1.8709832100553354, "Trench Angle": 19.364473380818005, "Arc Length": 0.87237332883727825, "Trench Normal Angle": 62.08606224148501, "Subduction ID": 511.0, "Trench ID": 686.0 }, "geometry": { "type": "Point", "coordinates": [ 92.609148318074176, 6.080173375380453 ] } }
]
}
