{
"type": "FeatureCollection",
"name": "Subduction_zones_North_Fiji",
"features": [
{ "type": "Feature", "properties": { "Lon": 169.33354207088558, "Lat": -21.831524858491715, "Convergence Velocity": 7.9914701416202307, "Convergence Angle": 29.001759684464616, "Trench Velocity": 6.0294366714000081, "Trench Angle": -113.2637686534862, "Arc Length": 1.1459155902616465, "Trench Normal Angle": 43.513269460790383, "Subduction ID": 801.0, "Trench ID": 827.0 }, "geometry": { "type": "Point", "coordinates": [ 169.333542070885585, -21.831524858491715 ] } },
{ "type": "Feature", "properties": { "Lon": 168.68237955992169, "Lat": -20.865467065318448, "Convergence Velocity": 8.1657239099413843, "Convergence Angle": 12.315638317510498, "Trench Velocity": 6.0786641068946974, "Trench Angle": -130.23316679172774, "Arc Length": 1.1459155902616465, "Trench Normal Angle": 60.110453403275926, "Subduction ID": 801.0, "Trench ID": 827.0 }, "geometry": { "type": "Point", "coordinates": [ 168.682379559921685, -20.865467065318448 ] } },
{ "type": "Feature", "properties": { "Lon": 168.073869427262, "Lat": -19.871639176623393, "Convergence Velocity": 8.3406865538692863, "Convergence Angle": 12.601643712370828, "Trench Velocity": 6.1316862553498686, "Trench Angle": -130.26189439073164, "Arc Length": 1.1459155902616465, "Trench Normal Angle": 59.777216277065882, "Subduction ID": 801.0, "Trench ID": 827.0 }, "geometry": { "type": "Point", "coordinates": [ 168.073869427261997, -19.871639176623393 ] } },
{ "type": "Feature", "properties": { "Lon": 167.62269002966849, "Lat": -18.809320195416461, "Convergence Velocity": 8.5147616348144339, "Convergence Angle": 3.1886517076240843, "Trench Velocity": 6.1904606292648543, "Trench Angle": -140.06645530024366, "Arc Length": 1.1459155902616465, "Trench Normal Angle": 69.250312210786589, "Subduction ID": 801.0, "Trench ID": 827.0 }, "geometry": { "type": "Point", "coordinates": [ 167.62269002966849, -18.809320195416461 ] } },
{ "type": "Feature", "properties": { "Lon": 167.18706777737683, "Lat": -17.740684807552238, "Convergence Velocity": 8.6861147470382623, "Convergence Angle": 3.8092535659623374, "Trench Velocity": 6.2491849078268666, "Trench Angle": -139.82997122838376, "Arc Length": 1.1459155902616465, "Trench Normal Angle": 68.694264215904212, "Subduction ID": 801.0, "Trench ID": 827.0 }, "geometry": { "type": "Point", "coordinates": [ 167.187067777376825, -17.740684807552238 ] } },
{ "type": "Feature", "properties": { "Lon": 166.7350345091819, "Lat": -16.681905909591432, "Convergence Velocity": 8.8533927794943104, "Convergence Angle": 6.2434254753679923, "Trench Velocity": 6.3056994488410743, "Trench Angle": -137.75224683147195, "Arc Length": 1.1459155902616465, "Trench Normal Angle": 66.304016515806282, "Subduction ID": 801.0, "Trench ID": 827.0 }, "geometry": { "type": "Point", "coordinates": [ 166.735034509181901, -16.681905909591432 ] } },
{ "type": "Feature", "properties": { "Lon": 166.25684800393211, "Lat": -15.632061168537041, "Convergence Velocity": 9.0171576402691684, "Convergence Angle": 6.1300069718607784, "Trench Velocity": 6.3599938979116351, "Trench Angle": -138.19419323187498, "Arc Length": 1.542490064847057, "Trench Normal Angle": 66.437087800186745, "Subduction ID": 801.0, "Trench ID": 827.0 }, "geometry": { "type": "Point", "coordinates": [ 166.256848003932106, -15.632061168537041 ] } },
{ "type": "Feature", "properties": { "Lon": 169.33354207088558, "Lat": -21.831524858491715, "Convergence Velocity": 7.9915045704376455, "Convergence Angle": 29.002204954089539, "Trench Velocity": 6.0294366714000081, "Trench Angle": -113.2637686534862, "Arc Length": 1.1459155902616465, "Trench Normal Angle": 43.513269460790383, "Subduction ID": 801.0, "Trench ID": 827.0 }, "geometry": { "type": "Point", "coordinates": [ 169.333542070885585, -21.831524858491715 ] } },
{ "type": "Feature", "properties": { "Lon": 168.68237955992169, "Lat": -20.865467065318448, "Convergence Velocity": 8.1657388101228214, "Convergence Angle": 12.316117170727201, "Trench Velocity": 6.0786641068946974, "Trench Angle": -130.23316679172774, "Arc Length": 1.1459155902616465, "Trench Normal Angle": 60.110453403275926, "Subduction ID": 801.0, "Trench ID": 827.0 }, "geometry": { "type": "Point", "coordinates": [ 168.682379559921685, -20.865467065318448 ] } },
{ "type": "Feature", "properties": { "Lon": 168.073869427262, "Lat": -19.871639176623393, "Convergence Velocity": 8.3407015412505476, "Convergence Angle": 12.602104221339301, "Trench Velocity": 6.1316862553498686, "Trench Angle": -130.26189439073164, "Arc Length": 1.1459155902616465, "Trench Normal Angle": 59.777216277065882, "Subduction ID": 801.0, "Trench ID": 827.0 }, "geometry": { "type": "Point", "coordinates": [ 168.073869427261997, -19.871639176623393 ] } },
{ "type": "Feature", "properties": { "Lon": 167.62269002966849, "Lat": -18.809320195416461, "Convergence Velocity": 8.5147653970576993, "Convergence Angle": 3.1891060563950289, "Trench Velocity": 6.1904606292648543, "Trench Angle": -140.06645530024366, "Arc Length": 1.1459155902616465, "Trench Normal Angle": 69.250312210786589, "Subduction ID": 801.0, "Trench ID": 827.0 }, "geometry": { "type": "Point", "coordinates": [ 167.62269002966849, -18.809320195416461 ] } },
{ "type": "Feature", "properties": { "Lon": 167.18706777737683, "Lat": -17.740684807552238, "Convergence Velocity": 8.6861191684361696, "Convergence Angle": 3.8096915269436149, "Trench Velocity": 6.2491849078268666, "Trench Angle": -139.82997122838376, "Arc Length": 1.1459155902616465, "Trench Normal Angle": 68.694264215904212, "Subduction ID": 801.0, "Trench ID": 827.0 }, "geometry": { "type": "Point", "coordinates": [ 167.187067777376825, -17.740684807552238 ] } },
{ "type": "Feature", "properties": { "Lon": 166.7350345091819, "Lat": -16.681905909591432, "Convergence Velocity": 8.853399894314876, "Convergence Angle": 6.2438463110105831, "Trench Velocity": 6.3056994488410743, "Trench Angle": -137.75224683147195, "Arc Length": 1.1459155902616465, "Trench Normal Angle": 66.304016515806282, "Subduction ID": 801.0, "Trench ID": 827.0 }, "geometry": { "type": "Point", "coordinates": [ 166.735034509181901, -16.681905909591432 ] } },
{ "type": "Feature", "properties": { "Lon": 166.25684800393211, "Lat": -15.632061168537041, "Convergence Velocity": 9.0171645001096472, "Convergence Angle": 6.1304127845222629, "Trench Velocity": 6.3599938979116351, "Trench Angle": -138.19419323187498, "Arc Length": 1.3427247480534501, "Trench Normal Angle": 66.437087800186745, "Subduction ID": 801.0, "Trench ID": 827.0 }, "geometry": { "type": "Point", "coordinates": [ 166.256848003932106, -15.632061168537041 ] } }
]
}
